{"type": "FeatureCollection", "features": [ {"type": "Feature", "properties": {"norad_id": 66505, "name": "STARLINK-34766", "group": "last-30-days", "lat": -16.447940429010018, "lon": -31.803348239707994, "alt_km": 416.39332688465765, "timestamp": "2025-12-11T22:43:46.023115+00:00", "meta": {"OBJECT_NAME": "STARLINK-34766", "OBJECT_ID": "2025-263W", "EPOCH": "2025-12-11T14:00:01.999872", "MEAN_MOTION": 15.50671141, "ECCENTRICITY": 0.0001398, "INCLINATION": 43.0004, "RA_OF_ASC_NODE": 131.8543, "ARG_OF_PERICENTER": 263.1752, "MEAN_ANOMALY": 68.6194, "EPHEMERIS_TYPE": 0, "CLASSIFICATION_TYPE": "U", "NORAD_CAT_ID": 66505, "ELEMENT_SET_NO": 999, "REV_AT_EPOCH": 545, "BSTAR": -0.0036396795, "MEAN_MOTION_DOT": -0.00208951, "MEAN_MOTION_DDOT": 0}, "tle": {"line1": "1 66505U 25263W   25345.58335648 -.00208951  00000+0 -36397-2 0  9997", "line2": "2 66505  43.0004 131.8543 0001398 263.1752  68.6194 15.50671141  5456"}}, "geometry": {"type": "Point", "coordinates": [-31.803348239707994, -16.447940429010018]}}, {"type": "Feature", "properties": {"norad_id": 66506, "name": "STARLINK-34765", "group": "last-30-days", "lat": -17.671770411190682, "lon": -30.28504623032333, "alt_km": 416.58187515289956, "timestamp": "2025-12-11T22:43:46.023125+00:00", "meta": {"OBJECT_NAME": "STARLINK-34765", "OBJECT_ID": "2025-263X", "EPOCH": "2025-12-11T14:00:01.999872", "MEAN_MOTION": 15.50621225, "ECCENTRICITY": 0.00013315, "INCLINATION": 43.0003, "RA_OF_ASC_NODE": 131.8504, "ARG_OF_PERICENTER": 267.3646, "MEAN_ANOMALY": 66.3693, "EPHEMERIS_TYPE": 0, "CLASSIFICATION_TYPE": "U", "NORAD_CAT_ID": 66506, "ELEMENT_SET_NO": 999, "REV_AT_EPOCH": 545, "BSTAR": -0.0026339345, "MEAN_MOTION_DOT": -0.00152125, "MEAN_MOTION_DDOT": 0}, "tle": {"line1": "1 66506U 25263X   25345.58335648 -.00152125  00000+0 -26339-2 0  9994", "line2": "2 66506  43.0003 131.8504 0001331 267.3646  66.3693 15.50621225  5455"}}, "geometry": {"type": "Point", "coordinates": [-30.28504623032333, -17.671770411190682]}}, {"type": "Feature", "properties": {"norad_id": 66507, "name": "STARLINK-34767", "group": "last-30-days", "lat": -14.956339248991934, "lon": -33.61092227037369, "alt_km": 429.24834958734573, "timestamp": "2025-12-11T22:43:46.023137+00:00", "meta": {"OBJECT_NAME": "STARLINK-34767", "OBJECT_ID": "2025-263Y", "EPOCH": "2025-12-11T14:00:01.999872", "MEAN_MOTION": 15.47753445, "ECCENTRICITY": 0.00015658, "INCLINATION": 43.0004, "RA_OF_ASC_NODE": 131.8468, "ARG_OF_PERICENTER": 266.5234, "MEAN_ANOMALY": 67.8018, "EPHEMERIS_TYPE": 0, "CLASSIFICATION_TYPE": "U", "NORAD_CAT_ID": 66507, "ELEMENT_SET_NO": 999, "REV_AT_EPOCH": 545, "BSTAR": -0.044086945, "MEAN_MOTION_DOT": -0.02079664, "MEAN_MOTION_DDOT": 0}, "tle": {"line1": "1 66507U 25263Y   25345.58335648 -.02079664  00000+0 -44087-1 0  9992", "line2": "2 66507  43.0004 131.8468 0001565 266.5234  67.8018 15.47753445  5452"}}, "geometry": {"type": "Point", "coordinates": [-33.61092227037369, -14.956339248991934]}}, {"type": "Feature", "properties": {"norad_id": 66508, "name": "STARLINK-35608", "group": "last-30-days", "lat": -23.641558547385443, "lon": -22.282717566173645, "alt_km": 416.88510353249694, "timestamp": "2025-12-11T22:43:46.023147+00:00", "meta": {"OBJECT_NAME": "STARLINK-35608", "OBJECT_ID": "2025-263Z", "EPOCH": "2025-12-11T14:00:01.999872", "MEAN_MOTION": 15.50623657, "ECCENTRICITY": 0.00014561, "INCLINATION": 43.0002, "RA_OF_ASC_NODE": 131.8261, "ARG_OF_PERICENTER": 272.7275, "MEAN_ANOMALY": 70.5796, "EPHEMERIS_TYPE": 0, "CLASSIFICATION_TYPE": "U", "NORAD_CAT_ID": 66508, "ELEMENT_SET_NO": 999, "REV_AT_EPOCH": 545, "BSTAR": -0.0018813918, "MEAN_MOTION_DOT": -0.0010936, "MEAN_MOTION_DDOT": 0}, "tle": {"line1": "1 66508U 25263Z   25345.58335648 -.00109360  00000+0 -18814-2 0  9998", "line2": "2 66508  43.0002 131.8261 0001456 272.7275  70.5796 15.50623657  5454"}}, "geometry": {"type": "Point", "coordinates": [-22.282717566173645, -23.641558547385443]}}, {"type": "Feature", "properties": {"norad_id": 66509, "name": "STARLINK-35598", "group": "last-30-days", "lat": -28.090386928867993, "lon": -15.37997571129873, "alt_km": 417.17409447184036, "timestamp": "2025-12-11T22:43:46.023157+00:00", "meta": {"OBJECT_NAME": "STARLINK-35598", "OBJECT_ID": "2025-263AA", "EPOCH": "2025-12-11T14:00:01.999872", "MEAN_MOTION": 15.50618181, "ECCENTRICITY": 0.00014065, "INCLINATION": 43.0001, "RA_OF_ASC_NODE": 131.8044, "ARG_OF_PERICENTER": 269.6421, "MEAN_ANOMALY": 81.3474, "EPHEMERIS_TYPE": 0, "CLASSIFICATION_TYPE": "U", "NORAD_CAT_ID": 66509, "ELEMENT_SET_NO": 999, "REV_AT_EPOCH": 545, "BSTAR": -0.0024947128, "MEAN_MOTION_DOT": -0.00144232, "MEAN_MOTION_DDOT": 0}, "tle": {"line1": "1 66509U 25263AA  25345.58335648 -.00144232  00000+0 -24947-2 0  9990", "line2": "2 66509  43.0001 131.8044 0001406 269.6421  81.3474 15.50618181  5455"}}, "geometry": {"type": "Point", "coordinates": [-15.37997571129873, -28.090386928867993]}}, {"type": "Feature", "properties": {"norad_id": 66510, "name": "STARLINK-35600", "group": "last-30-days", "lat": -24.779756651824158, "lon": -20.612442518730088, "alt_km": 416.94755753716527, "timestamp": "2025-12-11T22:43:46.023167+00:00", "meta": {"OBJECT_NAME": "STARLINK-35600", "OBJECT_ID": "2025-263AB", "EPOCH": "2025-12-11T14:00:01.999872", "MEAN_MOTION": 15.50621754, "ECCENTRICITY": 0.00013671, "INCLINATION": 43.0002, "RA_OF_ASC_NODE": 131.8196, "ARG_OF_PERICENTER": 262.8972, "MEAN_ANOMALY": 82.3385, "EPHEMERIS_TYPE": 0, "CLASSIFICATION_TYPE": "U", "NORAD_CAT_ID": 66510, "ELEMENT_SET_NO": 999, "REV_AT_EPOCH": 545, "BSTAR": -0.0026320766, "MEAN_MOTION_DOT": -0.00152023, "MEAN_MOTION_DDOT": 0}, "tle": {"line1": "1 66510U 25263AB  25345.58335648 -.00152023  00000+0 -26321-2 0  9997", "line2": "2 66510  43.0002 131.8196 0001367 262.8972  82.3385 15.50621754  5450"}}, "geometry": {"type": "Point", "coordinates": [-20.612442518730088, -24.779756651824158]}}, {"type": "Feature", "properties": {"norad_id": 66511, "name": "STARLINK-35444", "group": "last-30-days", "lat": -27.016222644868087, "lon": -17.144704061017194, "alt_km": 417.04933984017225, "timestamp": "2025-12-11T22:43:46.023177+00:00", "meta": {"OBJECT_NAME": "STARLINK-35444", "OBJECT_ID": "2025-263AC", "EPOCH": "2025-12-11T14:00:01.999872", "MEAN_MOTION": 15.50662857, "ECCENTRICITY": 0.00013394, "INCLINATION": 43.0002, "RA_OF_ASC_NODE": 131.8102, "ARG_OF_PERICENTER": 262.3754, "MEAN_ANOMALY": 86.6754, "EPHEMERIS_TYPE": 0, "CLASSIFICATION_TYPE": "U", "NORAD_CAT_ID": 66511, "ELEMENT_SET_NO": 999, "REV_AT_EPOCH": 545, "BSTAR": -0.0034001867, "MEAN_MOTION_DOT": -0.00195498, "MEAN_MOTION_DDOT": 0}, "tle": {"line1": "1 66511U 25263AC  25345.58335648 -.00195498  00000+0 -34002-2 0  9996", "line2": "2 66511  43.0002 131.8102 0001339 262.3754  86.6754 15.50662857  5456"}}, "geometry": {"type": "Point", "coordinates": [-17.144704061017194, -27.016222644868087]}}, {"type": "Feature", "properties": {"norad_id": 66512, "name": "STARLINK-35366", "group": "last-30-days", "lat": -29.147728062564536, "lon": -13.56680512442875, "alt_km": 417.34548235302464, "timestamp": "2025-12-11T22:43:46.023188+00:00", "meta": {"OBJECT_NAME": "STARLINK-35366", "OBJECT_ID": "2025-263AD", "EPOCH": "2025-12-11T14:00:01.999872", "MEAN_MOTION": 15.50621551, "ECCENTRICITY": 0.00012659, "INCLINATION": 43.0001, "RA_OF_ASC_NODE": 131.8007, "ARG_OF_PERICENTER": 273.9952, "MEAN_ANOMALY": 78.9086, "EPHEMERIS_TYPE": 0, "CLASSIFICATION_TYPE": "U", "NORAD_CAT_ID": 66512, "ELEMENT_SET_NO": 999, "REV_AT_EPOCH": 545, "BSTAR": -0.0026381389, "MEAN_MOTION_DOT": -0.00152363, "MEAN_MOTION_DDOT": 0}, "tle": {"line1": "1 66512U 25263AD  25345.58335648 -.00152363  00000+0 -26381-2 0  9992", "line2": "2 66512  43.0001 131.8007 0001265 273.9952  78.9086 15.50621551  5454"}}, "geometry": {"type": "Point", "coordinates": [-13.56680512442875, -29.147728062564536]}}, {"type": "Feature", "properties": {"norad_id": 66513, "name": "STARLINK-35692", "group": "last-30-days", "lat": -25.91305001488746, "lon": -18.88785988703742, "alt_km": 417.1208860832712, "timestamp": "2025-12-11T22:43:46.023199+00:00", "meta": {"OBJECT_NAME": "STARLINK-35692", "OBJECT_ID": "2025-263AE", "EPOCH": "2025-12-11T14:00:01.999872", "MEAN_MOTION": 15.50854048, "ECCENTRICITY": 0.00016655, "INCLINATION": 43.0002, "RA_OF_ASC_NODE": 131.8151, "ARG_OF_PERICENTER": 275.3502, "MEAN_ANOMALY": 71.6824, "EPHEMERIS_TYPE": 0, "CLASSIFICATION_TYPE": "U", "NORAD_CAT_ID": 66513, "ELEMENT_SET_NO": 999, "REV_AT_EPOCH": 545, "BSTAR": -0.008478565, "MEAN_MOTION_DOT": -0.00473461, "MEAN_MOTION_DDOT": 0}, "tle": {"line1": "1 66513U 25263AE  25345.58335648 -.00473461  00000+0 -84786-2 0  9991", "line2": "2 66513  43.0002 131.8151 0001665 275.3502  71.6824 15.50854048  5456"}}, "geometry": {"type": "Point", "coordinates": [-18.88785988703742, -25.91305001488746]}}, {"type": "Feature", "properties": {"norad_id": 66514, "name": "SENTINEL-6B", "group": "last-30-days", "lat": 53.65850609990926, "lon": -158.7517530505338, "alt_km": 1334.0849808312032, "timestamp": "2025-12-11T22:43:46.023212+00:00", "meta": {"OBJECT_NAME": "SENTINEL-6B", "OBJECT_ID": "2025-264A", "EPOCH": "2025-12-08T23:22:28.347744", "MEAN_MOTION": 12.8403254, "ECCENTRICITY": 0.00210881, "INCLINATION": 66.0391, "RA_OF_ASC_NODE": 170.2706, "ARG_OF_PERICENTER": 268.225, "MEAN_ANOMALY": 91.6352, "EPHEMERIS_TYPE": 0, "CLASSIFICATION_TYPE": "U", "NORAD_CAT_ID": 66514, "ELEMENT_SET_NO": 999, "REV_AT_EPOCH": 280, "BSTAR": -0.0054273268, "MEAN_MOTION_DOT": -1.368e-05, "MEAN_MOTION_DDOT": 0}, "tle": {"line1": "1 66514U 25264A   25342.97393921 -.00001368  00000+0 -54273-2 0  9992", "line2": "2 66514  66.0391 170.2706 0021088 268.2250  91.6352 12.84032540  2801"}}, "geometry": {"type": "Point", "coordinates": [-158.7517530505338, 53.65850609990926]}}]}